[{"OBJECT_NAME":"STARLINK-34938","OBJECT_ID":"2025-179B","EPOCH":"2026-03-09T15:58:21.453312","MEAN_MOTION":15.05653933,"ECCENTRICITY":0.00014446,"INCLINATION":97.604,"RA_OF_ASC_NODE":112.923,"ARG_OF_PERICENTER":92.9274,"MEAN_ANOMALY":267.2118,"EPHEMERIS_TYPE":0,"CLASSIFICATION_TYPE":"U","NORAD_CAT_ID":65236,"ELEMENT_SET_NO":999,"REV_AT_EPOCH":3186,"BSTAR":0.00017641376,"MEAN_MOTION_DOT":2.486e-5,"MEAN_MOTION_DDOT":0},{"OBJECT_NAME":"FENGYUN 1C DEB","OBJECT_ID":"1999-025AJJ","EPOCH":"2026-03-09T18:40:58.380672","MEAN_MOTION":15.18672988,"ECCENTRICITY":0.00638575,"INCLINATION":98.7226,"RA_OF_ASC_NODE":259.4919,"ARG_OF_PERICENTER":168.3626,"MEAN_ANOMALY":191.9098,"EPHEMERIS_TYPE":0,"CLASSIFICATION_TYPE":"U","NORAD_CAT_ID":30520,"ELEMENT_SET_NO":999,"REV_AT_EPOCH":2360,"BSTAR":0.0014000942,"MEAN_MOTION_DOT":0.0003064,"MEAN_MOTION_DDOT":0}]
